{
  "norad_id": 62453,
  "name": "STARLINK-32690",
  "history": [
    {
      "epoch": "2026-03-28T17:07:15.676032Z",
      "apogee_km": 475.90625709267897,
      "perigee_km": 474.46020652376683,
      "latitude_deg": 2.3924609861007503e-05,
      "longitude_deg": 163.80582981995153,
      "height_km": 475.994826107488,
      "semi_major_axis_km": 6853.320231808222,
      "eccentricity": 0.0001055,
      "inclination_deg": 53.1582,
      "raan_deg": 246.751,
      "arg_perigee_deg": 83.1216,
      "mean_anomaly_deg": 276.9905,
      "mean_motion_rev_day": 15.30210663
    },
    {
      "epoch": "2026-03-30T03:36:25.856928Z",
      "apogee_km": 475.62580130605784,
      "perigee_km": 474.69238237834907,
      "latitude_deg": 2.0147448067005353e-06,
      "longitude_deg": -1.5791026559717087,
      "height_km": 476.1818474464654,
      "semi_major_axis_km": 6853.296091842203,
      "eccentricity": 6.81e-05,
      "inclination_deg": 53.1587,
      "raan_deg": 240.0748,
      "arg_perigee_deg": 105.408,
      "mean_anomaly_deg": 254.6996,
      "mean_motion_rev_day": 15.30218748
    }
  ]
}